[{"OBJECT_NAME":"STARLINK-4503","OBJECT_ID":"2022-101B","EPOCH":"2026-03-09T10:45:37.363104","MEAN_MOTION":15.0884867,"ECCENTRICITY":0.00011758,"INCLINATION":53.2168,"RA_OF_ASC_NODE":75.2052,"ARG_OF_PERICENTER":80.6631,"MEAN_ANOMALY":279.4494,"EPHEMERIS_TYPE":0,"CLASSIFICATION_TYPE":"U","NORAD_CAT_ID":53528,"ELEMENT_SET_NO":999,"REV_AT_EPOCH":19612,"BSTAR":0.00018413302,"MEAN_MOTION_DOT":2.645e-5,"MEAN_MOTION_DDOT":0},{"OBJECT_NAME":"OBJECT G","OBJECT_ID":"2024-128G","EPOCH":"2026-03-09T22:09:32.997312","MEAN_MOTION":15.06569427,"ECCENTRICITY":0.00508438,"INCLINATION":61.9901,"RA_OF_ASC_NODE":202.8444,"ARG_OF_PERICENTER":113.9294,"MEAN_ANOMALY":246.7137,"EPHEMERIS_TYPE":0,"CLASSIFICATION_TYPE":"U","NORAD_CAT_ID":60241,"ELEMENT_SET_NO":999,"REV_AT_EPOCH":9135,"BSTAR":0.00049882926,"MEAN_MOTION_DOT":7.427e-5,"MEAN_MOTION_DDOT":0}]
